start=new Date('2023-05-15T00:00:00.000Z').valueOf();
sats=[{"RCS_SIZE":"LARGE","GP_ID":"231857874","CLASSIFICATION_TYPE":"U","OBJECT_NAME":"STARLINK-4734","OBJECT_ID":"2022-111T","ECCENTRICITY":"0.00010700","OBJECT_TYPE":"PAYLOAD","MEAN_MOTION":"15.08837211","PERIAPSIS":"539.014","TLE_LINE1":"1 53790U 22111T   23134.95985997 -.00000227  00000-0  38070-5 0  9990","MEAN_MOTION_DOT":"-0.00000227","SEMIMAJOR_AXIS":"6917.889","NORAD_CAT_ID":"53790","BSTAR":"0.00000380700000","ELEMENT_SET_NO":"999","EPHEMERIS_TYPE":"0","COUNTRY_CODE":"US","ARG_OF_PERICENTER":"82.4202","TIME_SYSTEM":"UTC","LAUNCH_DATE":"2022-09-11","SITE":"AFETR","EPOCH":"2023-05-14T23:02:11.901408","PERIOD":"95.438","REV_AT_EPOCH":"3743","APOAPSIS":"540.494","MEAN_MOTION_DDOT":"0.0000000000000","CENTER_NAME":"EARTH","DECAY_DATE":null,"MEAN_ELEMENT_THEORY":"SGP4","RA_OF_ASC_NODE":"216.6379","INCLINATION":"53.2152","REF_FRAME":"TEME","MEAN_ANOMALY":"277.6911","TLE_LINE2":"2 53790  53.2152 216.6379 0001070  82.4202 277.6911 15.08837211 37430","FILE":"3908016"},{"BSTAR":"-0.00000989540000","ELEMENT_SET_NO":"999","EPHEMERIS_TYPE":"0","COUNTRY_CODE":"US","CLASSIFICATION_TYPE":"U","GP_ID":"231853603","RCS_SIZE":"LARGE","OBJECT_NAME":"STARLINK-4739","ECCENTRICITY":"0.00007860","OBJECT_ID":"2022-111V","OBJECT_TYPE":"PAYLOAD","MEAN_MOTION":"15.08834441","TLE_LINE1":"1 53792U 22111V   23134.62128966 -.00000445  00000-0 -98954-5 0  9991","PERIAPSIS":"539.219","MEAN_MOTION_DOT":"-0.00000445","NORAD_CAT_ID":"53792","SEMIMAJOR_AXIS":"6917.897","REV_AT_EPOCH":"3818","MEAN_MOTION_DDOT":"0.0000000000000","APOAPSIS":"540.306","DECAY_DATE":null,"CENTER_NAME":"EARTH","MEAN_ELEMENT_THEORY":"SGP4","INCLINATION":"53.2152","RA_OF_ASC_NODE":"218.0762","MEAN_ANOMALY":"260.6756","REF_FRAME":"TEME","TLE_LINE2":"2 53792  53.2152 218.0762 0000786  99.4325 260.6756 15.08834441 38185","FILE":"3908005","ARG_OF_PERICENTER":"99.4325","SITE":"AFETR","TIME_SYSTEM":"UTC","LAUNCH_DATE":"2022-09-11","EPOCH":"2023-05-14T14:54:39.426624","PERIOD":"95.438"},{"COUNTRY_CODE":"US","EPHEMERIS_TYPE":"0","ELEMENT_SET_NO":"999","BSTAR":"0.00058200000000","SEMIMAJOR_AXIS":"6917.868","NORAD_CAT_ID":"53793","MEAN_MOTION_DOT":"0.00008988","PERIAPSIS":"539.384","TLE_LINE1":"1 53793U 22111W   23134.68479874  .00008988  00000-0  58200-3 0  9991","MEAN_MOTION":"15.08844008","OBJECT_TYPE":"PAYLOAD","OBJECT_ID":"2022-111W","ECCENTRICITY":"0.00005050","OBJECT_NAME":"STARLINK-4728","RCS_SIZE":"LARGE","GP_ID":"231854354","CLASSIFICATION_TYPE":"U","FILE":"3908005","TLE_LINE2":"2 53793  53.2151 217.7631 0000505  80.9153 279.1896 15.08844008 38190","MEAN_ANOMALY":"279.1896","REF_FRAME":"TEME","RA_OF_ASC_NODE":"217.7631","INCLINATION":"53.2151","MEAN_ELEMENT_THEORY":"SGP4","CENTER_NAME":"EARTH","DECAY_DATE":null,"APOAPSIS":"540.082","MEAN_MOTION_DDOT":"0.0000000000000","REV_AT_EPOCH":"3819","PERIOD":"95.437","EPOCH":"2023-05-14T16:26:06.611136","TIME_SYSTEM":"UTC","LAUNCH_DATE":"2022-09-11","SITE":"AFETR","ARG_OF_PERICENTER":"80.9153"},{"ECCENTRICITY":"0.00012570","OBJECT_ID":"2022-111X","OBJECT_TYPE":"PAYLOAD","GP_ID":"231820744","CLASSIFICATION_TYPE":"U","RCS_SIZE":"LARGE","OBJECT_NAME":"STARLINK-4730","MEAN_MOTION_DOT":"-0.00000656","NORAD_CAT_ID":"53794","SEMIMAJOR_AXIS":"6917.888","MEAN_MOTION":"15.08837517","TLE_LINE1":"1 53794U 22111X   23134.55969508 -.00000656  00000-0 -23122-4 0  9998","PERIAPSIS":"538.883","ELEMENT_SET_NO":"999","BSTAR":"-0.00002312200000","EPHEMERIS_TYPE":"0","COUNTRY_CODE":"US","EPOCH":"2023-05-14T13:25:57.654912","PERIOD":"95.438","ARG_OF_PERICENTER":"92.3163","SITE":"AFETR","LAUNCH_DATE":"2022-09-11","TIME_SYSTEM":"UTC","MEAN_MOTION_DDOT":"0.0000000000000","APOAPSIS":"540.623","DECAY_DATE":null,"CENTER_NAME":"EARTH","REV_AT_EPOCH":"3817","MEAN_ANOMALY":"267.7973","REF_FRAME":"TEME","FILE":"3907744","TLE_LINE2":"2 53794  53.2161 218.3978 0001257  92.3163 267.7973 15.08837517 38170","MEAN_ELEMENT_THEORY":"SGP4","INCLINATION":"53.2161","RA_OF_ASC_NODE":"218.3978"},{"OBJECT_TYPE":"PAYLOAD","ECCENTRICITY":"0.00013190","OBJECT_ID":"2022-111Y","OBJECT_NAME":"STARLINK-4742","CLASSIFICATION_TYPE":"U","GP_ID":"231855355","RCS_SIZE":"LARGE","NORAD_CAT_ID":"53795","SEMIMAJOR_AXIS":"6917.897","MEAN_MOTION_DOT":"-0.00000735","TLE_LINE1":"1 53795U 22111Y   23134.61023449 -.00000735  00000-0 -28079-4 0  9995","PERIAPSIS":"538.850","MEAN_MOTION":"15.08834431","ELEMENT_SET_NO":"999","BSTAR":"-0.00002807900000","COUNTRY_CODE":"US","EPHEMERIS_TYPE":"0","PERIOD":"95.438","EPOCH":"2023-05-14T14:38:44.259936","SITE":"AFETR","LAUNCH_DATE":"2022-09-11","TIME_SYSTEM":"UTC","ARG_OF_PERICENTER":"94.0723","DECAY_DATE":null,"CENTER_NAME":"EARTH","MEAN_MOTION_DDOT":"0.0000000000000","APOAPSIS":"540.675","REV_AT_EPOCH":"3818","TLE_LINE2":"2 53795  53.2167 218.0078 0001319  94.0723 266.0420 15.08834431 38187","FILE":"3908005","REF_FRAME":"TEME","MEAN_ANOMALY":"266.0420","INCLINATION":"53.2167","RA_OF_ASC_NODE":"218.0078","MEAN_ELEMENT_THEORY":"SGP4"},{"EPOCH":"2023-05-14T21:08:13.594560","PERIOD":"95.438","ARG_OF_PERICENTER":"88.8692","TIME_SYSTEM":"UTC","LAUNCH_DATE":"2022-09-11","SITE":"AFETR","MEAN_ANOMALY":"271.2451","REF_FRAME":"TEME","TLE_LINE2":"2 53796  53.2171 196.7796 0001311  88.8692 271.2451 15.08838435 37785","FILE":"3908036","MEAN_ELEMENT_THEORY":"SGP4","RA_OF_ASC_NODE":"196.7796","INCLINATION":"53.2171","APOAPSIS":"540.657","MEAN_MOTION_DDOT":"0.0000000000000","CENTER_NAME":"EARTH","DECAY_DATE":null,"REV_AT_EPOCH":"3778","MEAN_MOTION_DOT":"0.00000505","SEMIMAJOR_AXIS":"6917.885","NORAD_CAT_ID":"53796","MEAN_MOTION":"15.08838435","PERIAPSIS":"538.843","TLE_LINE1":"1 53796U 22111Z   23134.88071290  .00000505  00000-0  49812-4 0  9993","OBJECT_ID":"2022-111Z","ECCENTRICITY":"0.00013110","OBJECT_TYPE":"PAYLOAD","RCS_SIZE":"LARGE","GP_ID":"231858337","CLASSIFICATION_TYPE":"U","OBJECT_NAME":"STARLINK-4721","EPHEMERIS_TYPE":"0","COUNTRY_CODE":"US","ELEMENT_SET_NO":"999","BSTAR":"0.00004981200000"},{"PERIOD":"95.438","EPOCH":"2023-05-14T23:55:07.995648","LAUNCH_DATE":"2022-09-11","TIME_SYSTEM":"UTC","SITE":"AFETR","ARG_OF_PERICENTER":"84.1124","FILE":"3908028","TLE_LINE2":"2 53797  53.2158 216.1572 0000766  84.1124 275.9955 15.08833906 37443","MEAN_ANOMALY":"275.9955","REF_FRAME":"TEME","RA_OF_ASC_NODE":"216.1572","INCLINATION":"53.2158","MEAN_ELEMENT_THEORY":"SGP4","CENTER_NAME":"EARTH","DECAY_DATE":null,"APOAPSIS":"540.294","MEAN_MOTION_DDOT":"0.0000000000000","REV_AT_EPOCH":"3744","SEMIMAJOR_AXIS":"6917.899","NORAD_CAT_ID":"53797","MEAN_MOTION_DOT":"-0.00000654","PERIAPSIS":"539.234","TLE_LINE1":"1 53797U 22111AA  23134.99662032 -.00000654  00000-0 -23009-4 0  9993","MEAN_MOTION":"15.08833906","OBJECT_TYPE":"PAYLOAD","OBJECT_ID":"2022-111AA","ECCENTRICITY":"0.00007660","OBJECT_NAME":"STARLINK-4723","RCS_SIZE":"LARGE","GP_ID":"231858037","CLASSIFICATION_TYPE":"U","COUNTRY_CODE":"US","EPHEMERIS_TYPE":"0","ELEMENT_SET_NO":"999","BSTAR":"-0.00002300900000"},{"ECCENTRICITY":"0.00010300","OBJECT_ID":"2022-111AB","OBJECT_TYPE":"PAYLOAD","CLASSIFICATION_TYPE":"U","GP_ID":"231855105","RCS_SIZE":"LARGE","OBJECT_NAME":"STARLINK-4712","MEAN_MOTION_DOT":"-0.00000738","NORAD_CAT_ID":"53798","SEMIMAJOR_AXIS":"6917.895","MEAN_MOTION":"15.08835098","TLE_LINE1":"1 53798U 22111AB  23134.66910873 -.00000738  00000-0 -28279-4 0  9994","PERIAPSIS":"539.048","ELEMENT_SET_NO":"999","BSTAR":"-0.00002827900000","EPHEMERIS_TYPE":"0","COUNTRY_CODE":"US","EPOCH":"2023-05-14T16:03:30.994272","PERIOD":"95.438","ARG_OF_PERICENTER":"93.2055","SITE":"AFETR","LAUNCH_DATE":"2022-09-11","TIME_SYSTEM":"UTC","MEAN_MOTION_DDOT":"0.0000000000000","APOAPSIS":"540.473","DECAY_DATE":null,"CENTER_NAME":"EARTH","REV_AT_EPOCH":"3818","REF_FRAME":"TEME","MEAN_ANOMALY":"266.9055","FILE":"3908005","TLE_LINE2":"2 53798  53.2168 217.6639 0001030  93.2055 266.9055 15.08835098 38181","MEAN_ELEMENT_THEORY":"SGP4","INCLINATION":"53.2168","RA_OF_ASC_NODE":"217.6639"},{"OBJECT_TYPE":"PAYLOAD","OBJECT_ID":"2022-111AC","ECCENTRICITY":"0.00010820","OBJECT_NAME":"STARLINK-4710","RCS_SIZE":"LARGE","GP_ID":"231821494","CLASSIFICATION_TYPE":"U","SEMIMAJOR_AXIS":"6917.895","NORAD_CAT_ID":"53799","MEAN_MOTION_DOT":"-0.00000216","PERIAPSIS":"539.011","TLE_LINE1":"1 53799U 22111AC  23134.49710194 -.00000216  00000-0  44958-5 0  9993","MEAN_MOTION":"15.08835229","ELEMENT_SET_NO":"999","BSTAR":"0.00000449580000","COUNTRY_CODE":"US","EPHEMERIS_TYPE":"0","PERIOD":"95.438","EPOCH":"2023-05-14T11:55:49.607616","TIME_SYSTEM":"UTC","LAUNCH_DATE":"2022-09-11","SITE":"AFETR","ARG_OF_PERICENTER":"106.7217","CENTER_NAME":"EARTH","DECAY_DATE":null,"APOAPSIS":"540.508","MEAN_MOTION_DDOT":"0.0000000000000","REV_AT_EPOCH":"3829","FILE":"3907744","TLE_LINE2":"2 53799  53.2151 208.7378 0001082 106.7217 253.3894 15.08835229 38291","MEAN_ANOMALY":"253.3894","REF_FRAME":"TEME","RA_OF_ASC_NODE":"208.7378","INCLINATION":"53.2151","MEAN_ELEMENT_THEORY":"SGP4"},{"MEAN_MOTION":"15.08832730","TLE_LINE1":"1 53800U 22111AD  23134.63327099 -.00001139  00000-0 -53522-4 0  9992","PERIAPSIS":"538.855","MEAN_MOTION_DOT":"-0.00001139","NORAD_CAT_ID":"53800","SEMIMAJOR_AXIS":"6917.903","CLASSIFICATION_TYPE":"U","GP_ID":"231853604","RCS_SIZE":"LARGE","OBJECT_NAME":"STARLINK-4720","ECCENTRICITY":"0.00013190","OBJECT_ID":"2022-111AD","OBJECT_TYPE":"PAYLOAD","EPHEMERIS_TYPE":"0","COUNTRY_CODE":"US","BSTAR":"-0.00005352200000","ELEMENT_SET_NO":"999","ARG_OF_PERICENTER":"96.9731","SITE":"AFETR","TIME_SYSTEM":"UTC","LAUNCH_DATE":"2022-09-11","EPOCH":"2023-05-14T15:11:54.613536","PERIOD":"95.438","MEAN_ELEMENT_THEORY":"SGP4","INCLINATION":"53.2163","RA_OF_ASC_NODE":"208.1665","REF_FRAME":"TEME","MEAN_ANOMALY":"263.1412","TLE_LINE2":"2 53800  53.2163 208.1665 0001319  96.9731 263.1412 15.08832730 38316","FILE":"3908005","REV_AT_EPOCH":"3831","MEAN_MOTION_DDOT":"0.0000000000000","APOAPSIS":"540.680","DECAY_DATE":null,"CENTER_NAME":"EARTH"}];
